[{"OBJECT_NAME":"THEA","OBJECT_ID":"2018-099AQ","EPOCH":"2026-03-09T22:33:02.658240","MEAN_MOTION":15.31454284,"ECCENTRICITY":0.00065849,"INCLINATION":97.4542,"RA_OF_ASC_NODE":137.8815,"ARG_OF_PERICENTER":275.4664,"MEAN_ANOMALY":84.5826,"EPHEMERIS_TYPE":0,"CLASSIFICATION_TYPE":"U","NORAD_CAT_ID":43796,"ELEMENT_SET_NO":999,"REV_AT_EPOCH":39748,"BSTAR":0.00074635274,"MEAN_MOTION_DOT":0.00022649,"MEAN_MOTION_DDOT":0},{"OBJECT_NAME":"STARLINK-35124","OBJECT_ID":"2025-198V","EPOCH":"2026-03-09T19:40:33.340512","MEAN_MOTION":15.30170001,"ECCENTRICITY":0.0001321,"INCLINATION":53.1587,"RA_OF_ASC_NODE":270.1344,"ARG_OF_PERICENTER":60.2802,"MEAN_ANOMALY":299.833,"EPHEMERIS_TYPE":0,"CLASSIFICATION_TYPE":"U","NORAD_CAT_ID":65511,"ELEMENT_SET_NO":999,"REV_AT_EPOCH":2863,"BSTAR":0.00014744446,"MEAN_MOTION_DOT":4.006e-5,"MEAN_MOTION_DDOT":0}]
